{
  "norad_id": 55649,
  "name": "STARLINK-5469",
  "history": [
    {
      "epoch": "2026-03-28T13:59:13.806816Z",
      "apogee_km": 574.388415519632,
      "perigee_km": 569.684538110525,
      "latitude_deg": -1.3940233307122948e-05,
      "longitude_deg": 100.92359814991808,
      "height_km": 574.6942569475018,
      "semi_major_axis_km": 6950.173476815078,
      "eccentricity": 0.0003384,
      "inclination_deg": 69.9993,
      "raan_deg": 136.7323,
      "arg_perigee_deg": 264.3885,
      "mean_anomaly_deg": 95.6888,
      "mean_motion_rev_day": 14.98336278
    },
    {
      "epoch": "2026-03-29T04:24:26.566848Z",
      "apogee_km": 574.5888144854853,
      "perigee_km": 569.5290718388624,
      "latitude_deg": 4.931802734410521e-05,
      "longitude_deg": -117.4866628471184,
      "height_km": 574.6172345776223,
      "semi_major_axis_km": 6950.1959431621735,
      "eccentricity": 0.000364,
      "inclination_deg": 69.9991,
      "raan_deg": 135.2174,
      "arg_perigee_deg": 267.048,
      "mean_anomaly_deg": 93.0263,
      "mean_motion_rev_day": 14.98329013
    },
    {
      "epoch": "2026-03-30T04:26:27.380832Z",
      "apogee_km": 574.6127349185217,
      "perigee_km": 569.496004032314,
      "latitude_deg": 1.6537664699342295e-05,
      "longitude_deg": -121.502888898965,
      "height_km": 574.6180001860777,
      "semi_major_axis_km": 6950.191369475418,
      "eccentricity": 0.0003681,
      "inclination_deg": 69.9996,
      "raan_deg": 132.6916,
      "arg_perigee_deg": 266.9629,
      "mean_anomaly_deg": 93.1109,
      "mean_motion_rev_day": 14.98330492
    },
    {
      "epoch": "2026-03-30T06:02:35.354112Z",
      "apogee_km": 574.5571479075352,
      "perigee_km": 569.5335561035054,
      "latitude_deg": -2.2898565115328302e-05,
      "longitude_deg": -145.76962572128951,
      "height_km": 574.5753621483547,
      "semi_major_axis_km": 6950.1823520055195,
      "eccentricity": 0.0003614,
      "inclination_deg": 69.9991,
      "raan_deg": 132.5239,
      "arg_perigee_deg": 267.6722,
      "mean_anomaly_deg": 92.4023,
      "mean_motion_rev_day": 14.98333408
    },
    {
      "epoch": "2026-03-30T12:27:07.452000Z",
      "apogee_km": 574.5928122594805,
      "perigee_km": 569.4904081345894,
      "latitude_deg": 1.1472628659453707e-05,
      "longitude_deg": 117.16034099890283,
      "height_km": 574.5904089766473,
      "semi_major_axis_km": 6950.178610197035,
      "eccentricity": 0.00036707,
      "inclination_deg": 69.999,
      "raan_deg": 131.8508,
      "arg_perigee_deg": 267.2868,
      "mean_anomaly_deg": 92.7871,
      "mean_motion_rev_day": 14.98334618
    }
  ]
}